UNKNOWN                 
1 87163U 76126    23081.17871720  .00003913  00000+0  12664-2 0  9990
2 87163  65.6011 153.0234 0689174 141.4965 223.7398 13.53124091442169
UNKNOWN                 
1 87164U          23080.88091992  .00005562  00000+0  15182-2 0  9991
2 87164  65.2068 306.3115 0125639 116.4988 244.9053 14.43534332491190
UNKNOWN                 
1 87203U          23081.33681958  .00039237  00000+0  66179-2 0  9991
2 87203  98.8859  41.4802 0053106 126.6860 233.9239 14.68380901407273
UNKNOWN                 
1 87204U          23081.60300544  .00002968  00000+0  13372-2 0  9999
2 87204  98.6361 311.8691 0050897 352.9197   7.1257 14.22285834483501
UNKNOWN                 
1 87211U          23080.07446679  .00003855  00000+0  13632-2 0  9992
2 87211  99.0105  12.7779 0064230 217.9663 153.4688 14.34081487564209
UNKNOWN                 
1 87214U 70025    23077.93719228  .00000692  00000+0  71012-3 0  9996
2 87214 100.3120 333.7004 0071656 296.6217  62.7603 13.79382812462177
UNKNOWN                 
1 87235U          23081.17925141  .00009501  00000+0  33270-2 0  9990
2 87235  98.9785 241.6197 0148114 225.9699 132.9201 14.29340856443027
UNKNOWN                 
1 87237U 99025    23081.35520899  .00000703  00000+0  57572-3 0  9995
2 87237  99.3806 122.2803 0106136  90.1559 335.7447 13.90378212473236
UNKNOWN                 
1 87239U 81053    23081.26309961  .00008483  00000+0  33277-2 0  9992
2 87239  82.8846 191.1139 0030338 243.6205 116.1866 14.29035248484554
UNKNOWN                 
1 87245U 71015    23080.20652450  .00011157  00000+0  24885-2 0  9990
2 87245  65.6633 154.6533 0517279 244.1036 145.6566 13.97683531473941
UNKNOWN                 
1 87256U 99025    23073.96625267  .00001564  00000+0  94643-3 0  9995
2 87256  98.8206 141.4596 0042874 346.8398  13.1649 14.07464333442525
UNKNOWN                 
1 87271U 71015    23081.15022787  .00007435  00000+0  16139-2 0  9995
2 87271  65.7747 335.6917 0542851 221.2014 134.6876 13.94353461472113
UNKNOWN                 
1 87280U          23080.68764797  .00000462  00000+0  86705-3 0  9992
2 87280  64.6165 178.3446 0096996 143.1611 217.6143 13.47334670399467
UNKNOWN                 
1 87293U 71015    23081.39640747  .00017515  00000+0  41402-2 0  9998
2 87293  65.9083 226.7666 0506569 175.9460 184.5973 13.97175668473824
UNKNOWN                 
1 87300U 70025    23078.12260258  .00001848  00000+0  14273-2 0  9997
2 87300 100.0735 317.1727 0032588  65.3772 295.0774 13.94086913473585
UNKNOWN                 
1 87304U          23080.39711894  .00002261  00000+0  38665-3 0  9998
2 87304  74.0179 103.5174 0021709 322.5289  37.4367 14.69350255499702
UNKNOWN                 
1 87305U 93036    23080.00577612  .00024116  00000+0  37236-2 0  9991
2 87305  73.9947 343.9251 0025255  18.5082 341.7002 14.73039252327515
UNKNOWN                 
1 87320U 71015    23079.83301062  .00001618  00000+0  10782-2 0  9993
2 87320  66.5962 291.3083 0448956 326.7799  30.5793 13.63584561457387
UNKNOWN                 
1 87334U          23081.49071337  .00012666  00000+0  14552-1 0  9991
2 87334  90.0089 270.9887 0077349  67.3877 293.5443 13.68099999249055
UNKNOWN                 
1 87335U          23081.52193063  .00012569  00000+0  14494-1 0  9994
2 87335  89.9964 268.8884 0083909  38.9736 321.7431 13.67658191249117
UNKNOWN                 
1 87397U 94029    23080.41806762  .00069512  00000+0  74320-2 0  9995
2 87397  81.2278 108.1488 0001997  92.8490 267.2952 14.88393880410417
UNKNOWN                 
1 87405U 81053    23081.08709214  .00001630  00000+0  12968-2 0  9993
2 87405  82.7549 121.6550 0048269 309.0792  50.6082 13.90102391472395
UNKNOWN                 
1 87410U 76077    23075.25831480  .00001970  00000+0  18174-1 0  9993
2 87410 102.2538  13.5561 0197387  65.4493 296.6994 12.20453553414677
UNKNOWN                 
1 87416U 81053    23078.51178727  .00006232  00000+0  23821-2 0  9991
2 87416  82.8350 112.5803 0013840 321.5077  38.5122 14.30535126465797
UNKNOWN                 
1 87426U          23081.11612434  .00003306  00000+0  16854-2 0  9990
2 87426  65.7872 124.4711 0061043  94.5724 300.4476 14.16064879480843
UNKNOWN                 
1 87433U          23079.65508532  .00002544  00000+0  49100-2 0  9990
2 87433 100.1851 223.2945 0054346 149.6168 210.8126 13.37382393299043
UNKNOWN                 
1 87448U 70025    23080.15655881  .00001849  00000+0  16421-2 0  9994
2 87448 100.4260 158.8196 0066918 253.4645 105.9148 13.85387060470856
UNKNOWN                 
1 87456U 76126    23080.96322494  .00012098  00000+0  21726-2 0  9993
2 87456  65.7904 168.6330 0593602 153.3547 209.9384 13.91608049471764
UNKNOWN                 
1 87491U 99025    23078.52458918  .00019670  00000+0  38435-2 0  9993
2 87491  98.6142 175.7721 0057551 346.4086  13.5561 14.61864854436646
UNKNOWN                 
1 87501U 93036    23076.26826791  .00040634  00000+0  81236-2 0  9999
2 87501  74.0260 293.7532 0013265 203.2081 156.8488 14.61585876323735
UNKNOWN                 
1 87517U 76126    23080.87265941  .00003718  00000+0  12314-2 0  9996
2 87517  65.8266 115.6121 0711494  63.1808 103.1409 13.48145955457876
UNKNOWN                 
1 87541U 70025    23081.14912263  .00000076  00000+0  23299-3 0  9991
2 87541  99.8318 328.3576 0059315 147.0027   7.9076 13.35045389449022
UNKNOWN                 
1 87553U 76126    23081.12514102  .00002389  00000+0  77932-3 0  9992
2 87553  65.6715 228.7396 0739337 308.8573  44.8686 13.44156407456852
UNKNOWN                 
1 87557U 73086    23079.97530620  .00004567  00000+0  12080-1 0  9992
2 87557 101.8556 161.8548 0052356  70.6298 290.0459 13.16041982433213
UNKNOWN                 
1 87561U 76077    23080.93582688  .00000003  00000+0  37996-3 0  9995
2 87561 102.1289 150.0999 0173937 314.5531 219.0734 12.32135346419669
UNKNOWN                 
1 87565U 99025    23075.90250679  .00002415  00000+0  14181-2 0  9999
2 87565  99.9020 327.5202 0182716 355.5747   4.3793 14.01225970475906
UNKNOWN                 
1 87569U 99025    23080.15812069 -.00000033  00000+0  72246-4 0  9996
2 87569 101.8621 212.7627 0055843  55.6690 117.8383 12.68488926431978
UNKNOWN                 
1 87587U 93036    23078.47467161  .00000369  00000+0  12744-3 0  9990
2 87587  74.0251 149.2194 0019612  65.9342 294.3861 14.39088071490012
UNKNOWN                 
1 87590U 99025    23081.07508807  .00000751  00000+0  46480-3 0  9990
2 87590  98.9059 125.0575 0027385 209.7028 179.9827 14.08136186 13879
UNKNOWN                 
1 87616U 76067    23080.03451889  .00000554  00000+0  20727-2 0  9998
2 87616  66.0365 307.8400 0636573 203.9772 315.1030 12.45222333411925
UNKNOWN                 
1 87624U 99025    23080.92935021  .00004219  00000+0  89063-3 0  9990
2 87624  98.7271 317.7139 0126799  83.2842 278.2765 14.54992733434673
UNKNOWN                 
1 87650U          23081.12515128  .00009511  00000+0  33131-2 0  9993
2 87650 100.2748  35.7029 0046021 251.8748 107.7417 14.35031212 43842
UNKNOWN                 
1 87664U 75052    23078.64298089  .00000412  00000+0  12188-2 0  9994
2 87664  99.7492  41.8889 0213779  96.2171  76.4345 13.06452400410870
UNKNOWN                 
1 87672U 93016    23081.00180978  .00003730  00000+0  17376-2 0  9994
2 87672  70.8665 345.7075 0062525 345.6365  14.2979 14.20098065482581
UNKNOWN                 
1 87681U          23081.00426382  .00001470  00000+0  16709-2 0  9995
2 87681  66.7378 293.1125 0154825  99.9229 261.9353 13.67902044465355
UNKNOWN                 
1 87690U 76126    23081.12763997  .00004111  00000+0  68268-3 0  9999
2 87690  65.8020  26.9777 0661684 189.1483 169.7032 13.82142243468765
UNKNOWN                 
1 87706U          23081.62215372  .00005798  00000+0  13315-2 0  9993
2 87706  98.5825 217.0443 0131300  83.3908 341.5873 14.50671504433450
UNKNOWN                 
1 87725U 81053    23081.13577012  .00016187  00000+0  48687-2 0  9993
2 87725  82.8966  34.5473 0032895  27.9163 332.3786 14.42220701488321
UNKNOWN                 
1 87730U          23080.21174043  .00000132  00000+0  12369-3 0  9999
2 87730  82.9415 252.0273 0028707 263.3083  96.4805 13.74248641448318
UNKNOWN                 
1 87737U 99025    23080.90072115  .00000074  00000+0  12388-3 0  9990
2 87737  99.5238 316.0510 0132659 261.8098  96.7985 13.72080861467148
UNKNOWN                 
1 87764U 76126    23081.13108170  .00006740  00000+0  13537-2 0  9996
2 87764  65.6743 329.7758 0472672 216.6004 300.2142 14.09764318477455
UNKNOWN                 
1 87771U 75052    23081.40299896  .00000143  00000+0  45727-3 0  9995
2 87771 100.7112 245.3395 0120516 100.2192 261.2537 13.19140613403704
UNKNOWN                 
1 87782U 73086    23081.01020456  .00003267  00000+0  12108-1 0  9998
2 87782 102.4294 176.7244 0062240 109.4335 251.3497 12.92786757438815
UNKNOWN                 
1 87843U 70025    23079.28594912  .00002710  00000+0  66577-2 0  9997
2 87843  99.6708 269.3732 0246612 175.3644 184.9835 13.11443582433048
UNKNOWN                 
1 87845U          23081.33642043  .00000028  00000+0  11497-3 0  9995
2 87845  98.8577 226.0688 0583217  21.1364 341.2805 12.85270017437036
UNKNOWN                 
1 87878U          23079.07333321  .00002979  00000+0  11489-2 0  9992
2 87878  99.1966 126.8288 0040145 294.6544  65.0459 14.30639527468055
UNKNOWN                 
1 87883U 99025    23078.53710356  .00001990  00000+0  72577-3 0  9998
2 87883  99.1998 348.5702 0294354 304.6475  52.7268 14.13012776431118
UNKNOWN                 
1 87884U 99025    23080.32245221  .00000223  00000+0  14842-3 0  9992
2 87884  98.6394 213.4057 0156196 355.5742   4.4036 14.04713719478279
UNKNOWN                 
1 87898U 99025    23080.10572906  .00010869  00000+0  35353-2 0  9992
2 87898  98.9041 320.4249 0123745 299.4477  59.4405 14.34666205484988
UNKNOWN                 
1 87934U          23079.44884692  .00000127  00000+0  12207-3 0  9991
2 87934  82.9368 317.3352 0029615 292.2518 242.2347 13.72867290467326
